
STARLINK-32720          
1 62451U 24251V   25034.29205046  .00005476  00000+0  14672-3 0  9998
2 62451  53.1615  39.3613 0001402 106.7070 253.4089 15.39635464  6298
STARLINK-32656          
1 62452U 24251W   25031.46470950  .00003362  00000+0  68451-4 0  9990
2 62452  53.1594  52.2897 0001503  67.0691 293.0476 15.49321374  6083
STARLINK-32690          
1 62453U 24251X   25034.58335648  .00024941  00000+0  63220-3 0  9995
2 62453  53.1605  37.6846 0001423 101.1071 227.1827 15.39584817  6339
ASTRANIS UTILITYSAT     
1 62454U 24252A   25031.73854381 -.00000205  00000+0 -24776+0 0  9999
2 62454   9.8994 353.7357 7710072 191.0177 128.6461  1.06955586   378
NUVIEW ALPHA            
1 62455U 24252B   25031.82189607 -.00000184  00000+0  00000+0 0  9991
2 62455   9.9071 353.3043 7616212 190.8991 130.4785  1.05174712   368
AGILA                   
1 62456U 24252C   25031.71062204 -.00000198  00000+0  00000+0 0  9998
2 62456  10.2530 353.5947 7669777 190.6434 130.8445  1.06018164   369
NUVIEW BRAVO            
1 62457U 24252D   25031.86950459 -.00000184  00000+0  00000+0 0  9998
2 62457   9.9143 353.7366 7579017 190.5130 132.6252  1.05041328   364
SDX01                   
1 62459U 24253A   25034.49687631  .00026939  00000+0  83990-3 0  9990
2 62459  54.9980 102.4634 0012674  26.1392 334.0271 15.33038259  5336
SDX02                   
1 62460U 24253B   25033.71446014  .00031147  00000+0  97019-3 0  9998
2 62460  54.9984 105.9550 0012564  24.3258 335.8358 15.32992621  2452
POEM-4                  
1 62461U 24253C   25033.61817909  .00139231  00000+0  76172-3 0  9993
2 62461  55.2201  93.9387 0011022  18.5352 341.6096 15.78913852  5345
STARLINK-11518 [DTC]    
1 62462U 24254A   25034.21355835 -.00001449  00000+0 -54637-5 0  9992
2 62462  42.9998 112.7193 0001639 266.4858  93.5825 15.77847999  6559
STARLINK-11455 [DTC]    
1 62463U 24254B   25034.20380006 -.00000413  00000+0  49282-6 0  9990
2 62463  43.0009 112.6377 0001779 272.5936  87.4730 15.77852065  6555
STARLINK-11459 [DTC]    
1 62464U 24254C   25033.57568153  .00000753  00000+0  72016-5 0  9997
2 62464  43.0014 116.5357 0002313 275.0436  85.0170 15.77847778  6446
STARLINK-11178 [DTC]    
1 62465U 24254D   25034.26221638 -.00000438  00000+0  34733-6 0  9995
2 62465  42.9995 112.2116 0001525 257.8996 102.1703 15.77854007  6404
STARLINK-11506 [DTC]    
1 62466U 24254E   25033.24452882  .00000690  00000+0  68291-5 0  9994
2 62466  43.0001 118.3433 0002029 282.3930  77.6713 15.77876702  6240
STARLINK-11486 [DTC]    
1 62467U 24254F   25033.42955509  .00003401  00000+0  22394-4 0  9995
2 62467  43.0010 117.1467 0002158 285.0091  75.0540 15.77865558  6434
STARLINK-11511 [DTC]    
1 62468U 24254G   25033.29808939 -.00005442  00000+0 -28446-4 0  9998
2 62468  43.0001 117.8757 0004257 304.8421  55.2049 15.77811869  6411
STARLINK-11505 [DTC]    
1 62469U 24254H   25034.24269417  .00004528  00000+0  28871-4 0  9991
2 62469  42.9950 112.0439 0001467 205.5278 154.5519 15.77854180  6557
STARLINK-11497 [DTC]    
1 62470U 24254J   25034.49100805 -.00008535  00000+0 -46225-4 0  9992
2 62470  42.9848 110.4495 0001630 265.3568  94.7115 15.77857622  6604
STARLINK-11477 [DTC]    
1 62471U 24254K   25034.23294329 -.00002187  00000+0 -97158-5 0  9999
2 62471  42.9986 111.9675 0000845 288.5650  71.5128 15.77846558  6557
STARLINK-11500 [DTC]    
1 62472U 24254L   25034.48078031 -.00000651  00000+0 -86708-6 0  9991
2 62472  43.0039 110.3873 0002622 294.4233  65.6364 15.77854707  6078
STARLINK-11464 [DTC]    
1 62473U 24254M   25034.47590660  .00006620  00000+0  40884-4 0  9991
2 62473  43.0004 110.3446 0001141 303.3155  56.7605 15.77852267  6602
STARLINK-11502 [DTC]    
1 62474U 24254N   25033.91668981  .00016164  00000+0  95665-4 0  9993
2 62474  43.0019 113.6779 0001394 280.7247 166.7413 15.77834854  6515
STARLINK-32657          
1 62475U 24254P   25034.27512583 -.00005223  00000+0 -11778-3 0  9998
2 62475  43.0006 115.8642 0002660 285.0708  74.9854 15.40713968  6366
STARLINK-32734          
1 62476U 24254Q   25034.58335648  .00157328  00000+0  37121-2 0  9999
2 62476  42.9995 113.6955 0001158 252.6814 182.7734 15.40571832  6574
STARLINK-32733          
1 62477U 24254R   25033.26884566  .00001633  00000+0  33651-4 0  9995
2 62477  42.9997 121.2049 0001361 244.1539 115.9181 15.50581708  6378
STARLINK-32707          
1 62478U 24254S   25033.65465059 -.00001969  00000+0 -27748-4 0  9995
2 62478  43.0011 118.9425 0001572 279.5355  80.5327 15.50580845  6438
STARLINK-32705          
1 62479U 24254T   25034.20099432  .00001367  00000+0  40047-4 0  9993
2 62479  43.0069 116.1740 0005349 308.5034  51.5343 15.40673897  6351
STARLINK-32743          
1 62480U 24254U   25033.91668981 -.00035277  00000+0 -84084-3 0  9990
2 62480  43.0000 117.7147 0001512 258.9640 359.7680 15.40709879  6464
STARLINK-32753          
1 62481U 24254V   25032.62367726 -.00045689  00000+0 -78775-3 0  9999
2 62481  43.0023 124.9642 0002535 322.9933  37.0752 15.50208836  6276
STARLINK-32699          
1 62482U 24254W   25033.62235291 -.00006625  00000+0 -15159-3 0  9996
2 62482  43.0014 119.5639 0000685 215.7009 144.3802 15.40678939  6261
THURAYA-4               
1 62483U 25001A   25031.26288702 -.00000297  00000+0  00000+0 0  9994
2 62483  16.4825 317.3268 7356548 184.3363 161.0669  1.16876655   360
SHIJIAN-25 (SJ-25)      
1 62485U 25002A   25033.94443074 -.00000367  00000+0  00000+0 0  9997
2 62485  10.2450  43.5435 0056989 183.6996   6.0586  1.00262675   365
STARLINK-32713          
1 62487U 25003A   25034.25001157 -.00139285  00000+0 -33795-2 0  9990
2 62487  43.0003  29.2218 0001520 267.2948  13.0636 15.40776999  5369
STARLINK-32732          
1 62488U 25003B   25034.37436783  .00000158  00000+0  85156-5 0  9996
2 62488  43.0020  28.2374 0001636 279.9381  80.1294 15.50573796  5399
STARLINK-32328          
1 62489U 25003C   25034.37378868 -.00033896  00000+0 -57718-3 0  9994
2 62489  42.9989  28.2322 0008285 313.5385  46.4786 15.50401099  5556
STARLINK-32332          
1 62490U 25003D   25032.37715311  .00002171  00000+0  42822-4 0  9993
2 62490  43.0022  39.9115 0001598 267.2395  92.8282 15.50581679  5237
STARLINK-32717          
1 62491U 25003E   25034.58335648  .00060441  00000+0  14444-2 0  9991
2 62491  43.0007  27.1763 0001620 278.6817 102.5807 15.40664834  5573
STARLINK-32757          
1 62492U 25003F   25033.08467543 -.00003838  00000+0 -59638-4 0  9991
2 62492  43.0016  35.7595 0001432 277.5610  82.5088 15.50571900  5235
STARLINK-32731          
1 62493U 25003G   25034.05022641 -.00001490  00000+0 -19574-4 0  9993
2 62493  43.0007  30.1020 0002126 268.5969  91.4648 15.50575713  5503
STARLINK-32694          
1 62494U 25003H   25033.08434407  .00002307  00000+0  45118-4 0  9992
2 62494  43.0001  35.7560 0001059 267.9315  92.1424 15.50586050  5359
STARLINK-32708          
1 62495U 25003J   25034.04991264 -.00010002  00000+0 -16517-3 0  9992
2 62495  43.0027  30.1002 0001706 258.2071 101.8598 15.50528636  5388
STARLINK-32718          
1 62496U 25003K   25033.91668981  .00074391  00000+0  17726-2 0  9996
2 62496  43.0003  31.0761 0001718 251.7064   2.5742 15.40668840  5398
STARLINK-32729          
1 62497U 25003L   25034.04920428  .00000464  00000+0  13746-4 0  9999
2 62497  43.0000  30.0942 0002047 290.3871  69.6769 15.50573536  5501
STARLINK-32739          
1 62498U 25003M   25034.04885821  .00001149  00000+0  25410-4 0  9999
2 62498  43.0008  30.0903 0001359 260.8538  99.2168 15.50574752  5451
STARLINK-32714          
1 62499U 25003N   25034.50001157  .00026114  00000+0  63049-3 0  9991
2 62499  43.0007  27.5946 0001632 269.5015  33.8079 15.40688962  5575
STARLINK-32685          
1 62500U 25003P   25034.16668981 -.01531849  00000+0 -34409-1 0  9995
2 62500  43.0006  29.4272 0001478 262.8782  25.8408 15.45622558  5464
STARLINK-32691          
1 62501U 25003Q   25034.37028021  .00447806  00000+0  73669-2 0  9992
2 62501  42.9991  28.1980 0007312 181.3174 178.7668 15.49963736  5546
STARLINK-32788          
1 62502U 25003R   25033.08125671  .00002640  00000+0  50797-4 0  9991
2 62502  43.0009  35.7283 0001166 271.7776  88.2951 15.50584958  5235
STARLINK-32768          
1 62503U 25003S   25034.04714344  .00000144  00000+0  82821-5 0  9991
2 62503  43.0007  30.0746 0001956 275.2677  84.7960 15.50575389  5387
STARLINK-32792          
1 62504U 25003T   25034.04680242  .00000424  00000+0  13046-4 0  9994
2 62504  43.0006  30.0721 0001473 275.7364  84.3328 15.50574284  5334
STARLINK-32725          
1 62505U 25003U   25034.16668981 -.00059920  00000+0 -14364-2 0  9993
2 62505  43.0005  29.0484 0000935 266.3495 172.5850 15.40743082  5402
STARLINK-32681          
1 62506U 25003V   25034.20125498 -.00190582  00000+0 -95495-3 0  9995
2 62506  42.9993  25.0393 0001199 290.0820  69.9922 15.81279168  5572
STARLINK-32679          
1 62507U 25003W   25034.00002315  .00063741  00000+0  10832-2 0  9991
2 62507  43.0006  29.3960 0001086 267.2531 214.2758 15.50586967  5517
STARLINK-32749          
1 62508U 25003X   25034.04611872  .00001670  00000+0  34300-4 0  9991
2 62508  43.0002  30.0677 0002870 300.2082  59.8494 15.50573165  5380
STARLINK-32744          
1 62509U 25003Y   25034.16668981 -.00079271  00000+0 -19054-2 0  9999
2 62509  43.0005  29.6647 0001572 252.9479 297.1593 15.40774344  5395
STARLINK-32701          
1 62510U 25003Z   25034.50001157 -.01366223  00000+0 -34408-1 0  9991
2 62510  43.0007  27.5043 0001425 272.2201  67.4864 15.41940110  5443
STARLINK-11452 [DTC]    
1 62511U 25004A   25034.20001428  .00013899  00000+0  82522-4 0  9999
2 62511  42.9955 320.1290 0001199 280.8683  79.2052 15.77877871  5281
